APRIZESAT 2             
1 28366U 04025A   26170.37212284  .00000122  00000+0  51444-4 0  9997
2 28366  98.1017 336.2288 0104392 243.1751 115.8733 14.38036493151957
SAUDICOMSAT 1           
1 28369U 04025D   26170.49110361  .00000270  00000+0  73050-4 0  9997
2 28369  98.5770 180.6846 0032498  18.7342 341.5042 14.55475311164466
SAUDICOMSAT 2           
1 28370U 04025E   26170.26431403  .00000174  00000+0  56957-4 0  9997
2 28370  98.6640 182.5694 0054216 253.0594 106.4651 14.49982226160407
APRIZESAT 1             
1 28372U 04025G   26170.56911137  .00000169  00000+0  53502-4 0  9996
2 28372  98.6302 181.3595 0045234 146.7150 213.6903 14.51778047162250
NANOSAT-1               
1 28493U 04049B   26170.80553261  .00000761  00000+0  10746-3 0  9993
2 28493  98.2280 307.5304 0002745 290.2207  69.8708 14.80163884155832
SAUDICOMSAT 7           
1 31119U 07012C   26170.50147246  .00000311  00000+0  64948-4 0  9999
2 31119  98.3778 144.6806 0055447 187.9049 172.1286 14.66111867 22777
SAUDICOMSAT 6           
1 31121U 07012E   26170.14267797  .00000434  00000+0  92782-4 0  9999
2 31121  98.4099 137.6954 0070948 321.6173  37.9992 14.62560326 20472
SAUDICOMSAT 5           
1 31124U 07012H   26170.19908028  .00000498  00000+0  94294-4 0  9996
2 31124  98.3490 145.1186 0048546 118.5211 242.0893 14.68158530 23899
SAUDICOMSAT 3           
1 31125U 07012J   26170.15615589  .00000676  00000+0  11831-3 0  9993
2 31125  98.3144 145.6229 0040144  47.1968 313.2602 14.70708674 25110
SAUDICOMSAT 4           
1 31127U 07012L   26170.88755549  .00000321  00000+0  68872-4 0  9991
2 31127  98.3983 143.5131 0062119 249.6146 109.8377 14.64514326 21683
APRIZESAT 4             
1 35684U 09041D   26170.75201161  .00000445  00000+0  59830-4 0  9990
2 35684  98.1412 246.1237 0042243 314.5541  45.2225 14.83882094911745
APRIZESAT 3             
1 35686U 09041F   26170.37271590  .00001570  00000+0  13950-3 0  9995
2 35686  98.2067 323.7010 0062798  60.6968 300.0508 14.96248332916706
S-NET D                 
1 43186U 18014G   26170.77101068  .00003833  00000+0  19898-3 0  9996
2 43186  97.5356  75.5454 0008688  22.2001 337.9606 15.16692471459156
S-NET B                 
1 43187U 18014H   26170.78251392  .00003755  00000+0  19518-3 0  9996
2 43187  97.5363  75.5433 0009172  17.0385 343.1155 15.16663327459154
S-NET A                 
1 43188U 18014J   26170.70390009  .00003872  00000+0  20093-3 0  9998
2 43188  97.5374  75.6746 0009062  17.9375 342.2176 15.16699987459144
S-NET C                 
1 43189U 18014K   26170.78640308  .00003783  00000+0  19661-3 0  9997
2 43189  97.5391  75.8316 0010183   9.2884 350.8536 15.16655510457703
SALSAT                  
1 46495U 20068K   26170.95810387  .00006379  00000+0  22355-3 0  9995
2 46495  97.8854 174.1914 0007892 296.5001  63.5428 15.29832652315782
OOV-CUBE (TUBSAT-30)    
1 60240U 24128F   26170.58394809  .00001296  00000+0  11023-3 0  9998
2 60240  61.9930 217.2156 0044338 134.2886 226.1856 15.02780984106472
LPNTSAT-001 (IOD-1)     
1 68408U 26065A   26170.91022944  .00002068  00000+0  10310-3 0  9995
2 68408  97.4012  51.3621 0016389   1.3346 358.7929 15.18549663 12670
